[{"OBJECT_NAME":"STARLINK-34883","OBJECT_ID":"2025-192Y","EPOCH":"2026-03-09T22:00:01.999584","MEAN_MOTION":15.30162305,"ECCENTRICITY":0.00010348,"INCLINATION":53.1602,"RA_OF_ASC_NODE":231.0478,"ARG_OF_PERICENTER":80.5466,"MEAN_ANOMALY":236.4039,"EPHEMERIS_TYPE":0,"CLASSIFICATION_TYPE":"U","NORAD_CAT_ID":65426,"ELEMENT_SET_NO":999,"REV_AT_EPOCH":589,"BSTAR":0.0022368522,"MEAN_MOTION_DOT":0.00066406,"MEAN_MOTION_DDOT":0},{"OBJECT_NAME":"CZ-4B DEB","OBJECT_ID":"1999-057DZ","EPOCH":"2026-03-09T09:52:12.897696","MEAN_MOTION":15.33653758,"ECCENTRICITY":0.00127381,"INCLINATION":98.4932,"RA_OF_ASC_NODE":238.6814,"ARG_OF_PERICENTER":254.7139,"MEAN_ANOMALY":105.2693,"EPHEMERIS_TYPE":0,"CLASSIFICATION_TYPE":"U","NORAD_CAT_ID":26235,"ELEMENT_SET_NO":999,"REV_AT_EPOCH":38912,"BSTAR":0.0023807093,"MEAN_MOTION_DOT":0.00078286,"MEAN_MOTION_DDOT":0}]
